ENVISAT                 
1 27386U 02009A   23142.42726779  .00000314  00000+0  11664-3 0  9991
2 27386  98.2294 113.4905 0001256  87.9443  83.1907 14.38345599112254
IDEFIX & ARIANE 42P R/B 
1 27422U 02021B   23141.79674147  .00000366  00000+0  15938-3 0  9991
2 27422  98.4899  83.3946 0011476 325.2606  34.7826 14.29687119 97792
AQUA                    
1 27424U 02022A   23142.42347211  .00001263  00000+0  28466-3 0  9991
2 27424  98.2861  86.9298 0000786  90.7232  57.1324 14.58054316119607
CZ-4B R/B               
1 27432U 02024C   23142.07738545  .00000082  00000+0  66238-4 0  9995
2 27432  99.0247 176.3840 0051032  41.2810  13.4114 14.14212003 84764
MIDORI II (ADEOS-II)    
1 27597U 02056A   23142.10932299  .00000382  00000+0  17211-3 0  9997
2 27597  98.6474  86.6505 0002154  92.6247 267.5181 14.27903113 64272
H-2A R/B                
1 27601U 02056E   23142.41591144  .00000471  00000+0  18415-3 0  9993
2 27601  98.1915 135.0394 0071086 331.1375 200.1040 14.32359792 67679
CZ-4B R/B               
1 28059U 03049C   23141.78574392  .00000507  00000+0  13205-3 0  9991
2 28059  98.5592  89.6433 0050791 113.4080 247.2468 14.53161748 37942
CZ-2C R/B               
1 28222U 04012C   23141.76926507  .00008525  00000+0  42302-3 0  9999
2 28222  97.8012 135.4773 0039558 333.4287  26.4917 15.17277656 47440
SL-16 R/B               
1 28353U 04021B   23142.21126694 -.00000199  00000+0 -79374-4 0  9995
2 28353  71.0015 217.7501 0004469 181.6682 178.4426 14.14326943978255
CZ-4B R/B               
1 28415U 04035C   23142.33987764  .00004622  00000+0  27545-3 0  9990
2 28415  97.4700 180.0595 0045670 297.9590  61.7021 15.10793869 24710
CZ-2C R/B               
1 28480U 04046B   23142.18806792  .00000244  00000+0  10775-3 0  9991
2 28480  98.1095 109.0092 0140202 299.4037  59.3209 14.26030450962729
ARIANE 5 R/B            
1 28499U 04049H   23142.11339336  .00001173  00000+0  14733-3 0  9992
2 28499  98.1323 267.7538 0091318  60.8809 111.0315 14.81247335994238
CZ-2D R/B               
1 28738U 05024B   23142.28839289  .00009390  00000+0  46507-3 0  9995
2 28738  97.3542 144.5298 0012509  83.2268 277.0389 15.17913994983082
SUZAKU (ASTRO-EII)      
1 28773U 05025A   23141.98286385  .00012236  00000+0  43152-3 0  9990
2 28773  31.3797 239.7139 0003330 209.5566 150.4896 15.28012434986685
ALOS (DAICHI)           
1 28931U 06002A   23142.34725762  .00001569  00000+0  30715-3 0  9998
2 28931  97.9867 100.6349 0001179  50.1622 309.9684 14.64135673923999
H-2A R/B                
1 28932U 06002B   23142.17639449  .00006144  00000+0  51448-3 0  9996
2 28932  98.2417 207.7175 0083099  59.1306 301.8054 14.96149831940739
RESURS-DK 1             
1 29228U 06021A   23141.98716970  .00002469  00000+0  18172-3 0  9992
2 29228  69.9364 345.4844 0007652 260.9440  99.0856 15.04757947933303
GENESIS 1               
1 29252U 06029A   23141.99811171  .00009921  00000+0  38321-3 0  9995
2 29252  64.5222  35.6886 0028616 215.0263 144.8983 15.26364318930593
CZ-4B R/B               
1 29507U 06046C   23142.03508043  .00004540  00000+0  32706-3 0  9997
2 29507  97.6892 175.4049 0044096 167.8752 192.3545 15.03897559905763
CZ-2C R/B               
1 31114U 07010B   23142.39257585  .00000127  00000+0  77762-4 0  9996
2 31114  98.2772 297.6786 0060145  30.7772 329.6910 14.19569184834658
COSMO-SKYMED 1          
1 31598U 07023A   23142.43992887  .00000764  00000+0  10248-3 0  9994
2 31598  97.8881 326.2886 0001280  88.5092 271.6267 14.82169648863172
GENESIS 2               
1 31789U 07028A   23141.28170933  .00010991  00000+0  42458-3 0  9994
2 31789  64.4949  82.1672 0057974 265.0559  94.3947 15.25096423877304
COSMOS 2428             
1 31792U 07029A   23142.40223472 -.00000147  00000+0 -53438-4 0  9996
2 31792  70.9314 188.9015 0009904 272.7509  87.2478 14.12548997819794
SL-16 R/B               
1 31793U 07029B   23141.79344995 -.00000150  00000+0 -53408-4 0  9993
2 31793  70.9730 162.0572 0001937 265.3395 269.0963 14.14532224820707
KORONAS-FOTON           
1 33504U 09003A   23142.26779353  .00008068  00000+0  36879-3 0  9998
2 33504  82.4415 237.3113 0018043 169.8068 190.3537 15.20259948789507
CZ-2C R/B               
1 37731U 11030B   23141.93064944  .00001717  00000+0  24943-3 0  9996
2 37731  97.7123 116.9779 0059605  72.4514 301.9699 14.75992567638964
H-2A R/B                
1 38341U 12025E   23142.41880203  .00003163  00000+0  35943-3 0  9996
2 38341  98.4591  24.5839 0054250  36.4563 324.0325 14.86025284596044
CUSAT 2 & FALCON 9 R/B  
1 39271U 13055G   23142.37127144  .00048556  00000+0  87306-3 0  9991
2 39271  80.9486 176.9991 0450202 141.3432 222.0939 14.83083751506617
SHIJIAN-16 (SJ-16)      
1 39358U 13057A   23142.43647537  .00001298  00000+0  14727-3 0  9998
2 39358  74.9726 312.3450 0018102  63.4999 296.8040 14.87102726519366
CZ-2C R/B               
1 39364U 13059B   23141.87610316  .00023550  00000+0  54262-3 0  9992
2 39364  97.1059 189.5511 0034180 189.8096 170.2489 15.41967034532174
SL-4 R/B                
1 39679U 14021B   23142.36632592  .00007175  00000+0  31733-3 0  9999
2 39679  51.6105 173.8263 0154830  59.7116 301.9075 15.12669798500659
ALOS-2                  
1 39766U 14029A   23142.44834544  .00002932  00000+0  39929-3 0  9995
2 39766  97.9220 239.7095 0001615  98.4230 261.7164 14.79470840485756
SL-27 R/B               
1 40354U 14084B   23142.17264238  .00017049  00000+0  27843-3 0  9995
2 40354  74.7338 327.1663 0026746 334.2187  25.7696 15.52094254473377
YAOGAN-29               
1 41038U 15069A   23142.43749255  .00000693  00000+0  95767-4 0  9993
2 41038  98.0627 149.4672 0002526  89.0679 271.0823 14.81318190404464
ASTRO-H (HITOMI)        
1 41337U 16012A   23141.90869696  .00002977  00000+0  22099-3 0  9991
2 41337  31.0047  69.3035 0011600 199.4249 160.5946 15.01004964397984
HXMT (HUIYAN)           
1 42758U 17034A   23142.46231126  .00008102  00000+0  46519-3 0  9996
2 42758  43.0160 280.7877 0009412 242.2909 117.6983 15.12798587327476
CZ-2C R/B               
1 43521U 18054D   23142.43339456  .00008939  00000+0  40034-3 0  9994
2 43521  35.1533  54.1632 0071512 213.8055 145.8089 15.18210111271127
AEOLUS                  
1 43600U 18066A   23141.95631544  .00150162  00000+0  57742-3 0  9994
2 43600  96.7164 147.7252 0007208 106.5837 253.6229 15.86934800274807
SAOCOM 1A               
1 43641U 18076A   23142.44830353  .00000655  00000+0  88863-4 0  9994
2 43641  97.8889 329.3047 0001418  91.3284 268.8091 14.82148744249943
H-2A R/B                
1 43682U 18084L   23142.02717333  .00005908  00000+0  37554-3 0  9990
2 43682  98.8949 162.0423 0050234 228.8008 130.8880 15.08277390250278
SAOCOM 1B               
1 46265U 20059A   23142.47949059  .00000657  00000+0  89051-4 0  9992
2 46265  97.8893 328.4109 0001389  90.8069 269.3304 14.82148910147343
CSS (TIANHE)            
1 48274U 21035A   23142.42962830  .00036107  00000+0  42436-3 0  9990
2 48274  41.4745 312.4279 0010334 220.2193 139.7882 15.60656548117812
2022-019U               
1 51842U 22019U   23142.45935847  .00027131  00000+0  79766-3 0  9992
2 51842  97.5285 228.7448 0056813  75.0956 285.6568 15.33442298 68520
CZ-2C R/B               
1 52794U 22058K   23141.99595332  .00007651  00000+0  37755-3 0  9998
2 52794  50.1729 352.6230 0095116   0.6253 359.4804 15.14927382 53522
CZ-2C R/B               
1 53131U 22082D   23141.77703693  .00027891  00000+0  52435-3 0  9998
2 53131  97.3467 156.4334 0035884 336.5486  23.4126 15.47816740 47697
